IRIDIUM 119             
1 42959U 17061E   24223.20927870  .00000628  00000+0  21697-3 0  9995
2 42959  86.3984 307.7395 0002446  91.6566 268.4910 14.34223870357922
IRIDIUM 107             
1 42960U 17061F   24222.80970590 -.00000030  00000+0 -17868-4 0  9994
2 42960  86.3986 307.9234 0002219  89.1762 270.9688 14.34216672357885
IRIDIUM 132             
1 42961U 17061G   24223.16489132  .00000437  00000+0  14904-3 0  9998
2 42961  86.3985 307.7595 0002120  87.3111 272.8327 14.34217465357929
IRIDIUM 136             
1 42962U 17061H   24223.26637383  .00000040  00000+0  70814-5 0  9997
2 42962  86.3974 307.7195 0003049  99.0841 261.0699 14.34220716357953
IRIDIUM 139             
1 42963U 17061J   24222.78433743  .00000112  00000+0  32828-4 0  9990
2 42963  86.3987 307.9731 0002301  85.8960 274.2499 14.34216918357897
IRIDIUM 125             
1 42964U 17061K   24222.77165140  .00000202  00000+0  64956-4 0  9990
2 42964  86.3989 308.0269 0002722  90.3082 269.8425 14.34216993357905
IRIDIUM 135             
1 43070U 17083A   24223.16438565 -.00000026  00000+0 -16200-4 0  9996
2 43070  86.3932 244.4994 0001902  97.2734 262.8678 14.34217291347251
IRIDIUM 138             
1 43071U 17083B   24222.77114760  .00000010  00000+0 -36263-5 0  9995
2 43071  86.3921 244.3744 0002563  92.0685 268.0805 14.34217577347183
